STARLINK-3578           
1 51868U 22022S   26068.23904891  .00000038  00000+0  20512-4 0  9998
2 51868  53.2196  11.1471 0001510  81.7343 278.3820 15.08839548223046
2024-205C               
1 61896U 24205C   26067.20867002  .00012247  00000+0  67177-3 0  9995
2 61896  97.4204 141.0161 0044383 341.9375  18.0277 15.13448144 72971
